DMSP 5D-3 F16 (USA 172) 
1 28054U 03048A   25274.41810130  .00000354  00000+0  20862-3 0  9994
2 28054  99.0119 291.2765 0007680 152.4845 343.0430 14.14385332132908
METEOSAT-9 (MSG-2)      
1 28912U 05049B   25273.00332365  .00000131  00000+0  00000+0 0  9994
2 28912   8.7639  56.6528 0002169 183.5820 175.7206  1.00268924  4390
DMSP 5D-3 F17 (USA 191) 
1 29522U 06050A   25274.49872742  .00000478  00000+0  27004-3 0  9998
2 29522  98.7421 281.3784 0011223  76.4294 283.8129 14.14872502975836
FENGYUN 3A              
1 32958U 08026A   25274.43615053  .00000320  00000+0  17224-3 0  9993
2 32958  98.6564 215.5329 0009214 147.1425 213.0326 14.19479426898698
GOES 14                 
1 35491U 09033A   25274.09959477 -.00000065  00000+0  00000+0 0  9997
2 35491   1.0043  86.3373 0003820 109.6581 101.5548  1.00270929  3990
DMSP 5D-3 F18 (USA 210) 
1 35951U 09057A   25274.51689354  .00000557  00000+0  31252-3 0  9997
2 35951  98.8736 251.3112 0009913 267.1617  92.8422 14.14709938823010
EWS-G2 (GOES 15)        
1 36411U 10008A   25274.50597376  .00000039  00000+0  00000+0 0  9996
2 36411   0.6211  85.5093 0005306 140.1376  28.3612  1.00272914 57047
COMS 1                  
1 36744U 10032A   25274.52240786 -.00000340  00000+0  00000+0 0  9990
2 36744   4.1590  78.7276 0000725 109.6140 138.3902  1.00269838 48495
FENGYUN 3B              
1 37214U 10059A   25274.55691722  .00000233  00000+0  14438-3 0  9999
2 37214  99.0025 313.9860 0021836 196.9944 321.3399 14.14760342770855
SUOMI NPP               
1 37849U 11061A   25274.51634304  .00000296  00000+0  16142-3 0  9999
2 37849  98.7643 212.5511 0001770  34.2261 325.9029 14.19523947721746
METEOSAT-10 (MSG-3)     
1 38552U 12035B   25274.09489315  .00000001  00000+0  00000+0 0  9992
2 38552   4.0519  61.8598 0000226 187.9641 154.8072  1.00277620 48258
METOP-B                 
1 38771U 12049A   25274.35808888  .00000342  00000+0  17683-3 0  9996
2 38771  98.6917 325.5011 0002693  37.4622 322.6743 14.21368904676496
INSAT-3D                
1 39216U 13038B   25273.79681605 -.00000336  00000+0  00000+0 0  9998
2 39216   1.2492  85.9439 0001521 122.7496 217.4990  1.00274644 44478
FENGYUN 3C              
1 39260U 13052A   25274.51242527  .00000312  00000+0  18001-3 0  9997
2 39260  98.4673 255.7454 0015660  50.9849 309.2718 14.15661604621962
METEOR-M 2              
1 40069U 14037A   25274.52320593  .00000417  00000+0  21041-3 0  9995
2 40069  98.4810 254.9043 0006929  71.7564 288.4368 14.21342394582573
HIMAWARI-8              
1 40267U 14060A   25273.63485958 -.00000273  00000+0  00000+0 0  9998
2 40267   0.0185 202.9602 0001098 358.3601 177.5258  1.00271121 40149
FENGYUN 2G              
1 40367U 14090A   25274.01935103 -.00000298  00000+0  00000+0 0  9994
2 40367   4.9783  75.9558 0003386 177.3649 223.3098  1.00273174 39407
METEOSAT-11 (MSG-4)     
1 40732U 15034A   25274.08933546  .00000067  00000+0  00000+0 0  9998
2 40732   2.5500  72.1735 0000751 156.0609 183.4526  1.00278300  4616
ELEKTRO-L 2             
1 41105U 15074A   25274.10600554 -.00000112  00000+0  00000+0 0  9992
2 41105   6.0359  73.7015 0002585 173.2790 146.7507  1.00270805 35908
INSAT-3DR               
1 41752U 16054A   25272.44425838 -.00000074  00000+0  00000+0 0  9991
2 41752   0.0859  87.9841 0012322 175.4170 339.0109  1.00272020 33202
HIMAWARI-9              
1 41836U 16064A   25273.74204694 -.00000271  00000+0  00000+0 0  9993
2 41836   0.0088 119.4986 0001515  97.0110 201.1537  1.00278046 32606
GOES 16                 
1 41866U 16071A   25273.55068608 -.00000089  00000+0  00000+0 0  9993
2 41866   0.1022  77.3358 0002301 136.2712 249.5092  1.00272246 32508
FENGYUN 4A              
1 41882U 16077A   25273.95279073 -.00000355  00000+0  00000+0 0  9997
2 41882   1.6574  83.0379 0006248 160.0787 233.4969  1.00265952 32334
CYGFM05                 
1 41884U 16078A   25274.08107053  .00030898  00000+0  65842-3 0  9996
2 41884  34.9592 160.4055 0010222 235.9245 124.0506 15.43869539488514
CYGFM04                 
1 41885U 16078B   25273.95548803  .00033807  00000+0  66712-3 0  9994
2 41885  34.9342 137.8322 0009612 260.3216  99.6419 15.46104316488657
CYGFM02                 
1 41886U 16078C   25273.95711944  .00036343  00000+0  68681-3 0  9998
2 41886  34.9431 137.1412 0010939 256.4847 103.4655 15.47323869488776
CYGFM01                 
1 41887U 16078D   25274.03746098  .00031425  00000+0  65949-3 0  9997
2 41887  34.9425 163.5758 0009393 225.9746 134.0201 15.44323507488444
CYGFM08                 
1 41888U 16078E   25274.01521067  .00032980  00000+0  66654-3 0  9994
2 41888  34.9455 147.4713 0011493 247.3248 112.6257 15.45392674488668
CYGFM07                 
1 41890U 16078G   25274.30193036  .00034337  00000+0  67782-3 0  9991
2 41890  34.9474 134.9718 0010009 268.1316  91.8258 15.46086738488725
CYGFM03                 
1 41891U 16078H   25274.32636294  .00034438  00000+0  68692-3 0  9995
2 41891  34.9425 136.6776 0008846 256.0774 103.8963 15.45797156488702
FENGYUN 3D              
1 43010U 17072A   25274.49790970  .00000315  00000+0  17083-3 0  9990
2 43010  98.9764 239.7673 0002548  74.6431 285.5025 14.19650041408284
NOAA 20 (JPSS-1)        
1 43013U 17073A   25274.46056862  .00000240  00000+0  13439-3 0  9994
2 43013  98.7471 211.5917 0000891  29.7835 330.3391 14.19566926407762
GOES 17                 
1 43226U 18022A   25272.38864182 -.00000179  00000+0  00000+0 0  9994
2 43226   0.2609  91.6153 0002417 151.2130 176.0020  1.00272013 27807
FENGYUN 2H              
1 43491U 18050A   25274.52329881 -.00000124  00000+0  00000+0 0  9999
2 43491   2.3588  82.1321 0002832 133.5338  62.2978  1.00268322 26845
METOP-C                 
1 43689U 18087A   25274.46260928  .00000346  00000+0  17808-3 0  9990
2 43689  98.7037 333.2993 0001480 146.1831 213.9441 14.21500303358071
GEO-KOMPSAT-2A          
1 43823U 18100A   25272.88325387 -.00000341  00000+0  00000+0 0  9999
2 43823   0.0467  24.6017 0001699  99.1133 331.4268  1.00272031 25022
METEOR-M2 2             
1 44387U 19038A   25274.51880163  .00000402  00000+0  19397-3 0  9996
2 44387  98.8880 253.3913 0002219  63.4913 296.6493 14.24245569324476
ARKTIKA-M 1             
1 47719U 21016A   25266.32659031 -.00000078  00000+0  00000+0 0  9992
2 47719  63.1696  94.8597 7159970 268.8502  16.1065  2.00628734 33436
FENGYUN 3E              
1 49008U 21062A   25274.51458492  .00000094  00000+0  64930-4 0  9998
2 49008  98.7476 275.8847 0002677 103.3030 256.8445 14.19865269219879
GOES 18                 
1 51850U 22021A   25274.14802889  .00000098  00000+0  00000+0 0  9991
2 51850   0.0442  19.0078 0000312 218.7595  48.6758  1.00271325  3999
NOAA 21 (JPSS-2)        
1 54234U 22150A   25274.42614662  .00000297  00000+0  16148-3 0  9999
2 54234  98.7334 211.6778 0001356 163.1758 196.9463 14.19566246149839
METEOSAT-12 (MTG-I1)    
1 54743U 22170C   25274.09489315 -.00000006  00000+0  00000+0 0  9999
2 54743   0.6760  27.3335 0001788 122.0820 254.4363  1.00271425 10387
TIANMU-1 03             
1 55973U 23039A   25274.47643118  .00028640  00000+0  76619-3 0  9991
2 55973  97.5105  75.2792 0002967 324.1189  35.9856 15.38009558140940
TIANMU-1 04             
1 55974U 23039B   25274.53534455  .00028997  00000+0  76853-3 0  9997
2 55974  97.5034  74.5638 0003659 315.7297  44.3655 15.38292472140959
TIANMU-1 05             
1 55975U 23039C   25274.51334024  .00026994  00000+0  72307-3 0  9991
2 55975  97.5081  75.0268 0003049 350.7665   9.3523 15.37981153140931
TIANMU-1 06             
1 55976U 23039D   25274.54031094  .00028013  00000+0  74097-3 0  9998
2 55976  97.5094  75.4625 0003337 341.9535  18.1591 15.38362124140952
FENGYUN 3G              
1 56232U 23055A   25274.41474444  .00057154  00000+0  90129-3 0  9990
2 56232  49.9935 240.4531 0008680 203.7219 156.3349 15.52894883139786
METEOR-M2 3             
1 57166U 23091A   25274.53081253  .00000083  00000+0  55069-4 0  9996
2 57166  98.6490 329.2889 0003753 185.9044 174.2091 14.24013108117707
TIANMU-1 07             
1 57399U 23101A   25274.52732322  .00016186  00000+0  62039-3 0  9990
2 57399  97.2994 326.0003 0003478 358.9533   1.1698 15.26586077122138
TIANMU-1 08             
1 57400U 23101B   25274.49366000  .00016242  00000+0  62254-3 0  9997
2 57400  97.2983 325.7778 0005472 354.1790   5.9384 15.26577714122124
TIANMU-1 09             
1 57401U 23101C   25274.48066532  .00016518  00000+0  63345-3 0  9992
2 57401  97.2941 325.3194 0004722 356.7464   3.3743 15.26558917122125
TIANMU-1 10             
1 57402U 23101D   25274.51439317  .00016411  00000+0  62947-3 0  9991
2 57402  97.3020 326.1260 0006465 351.2997   8.8129 15.26546635122127
FENGYUN 3F              
1 57490U 23111A   25274.50196576  .00000243  00000+0  13501-3 0  9993
2 57490  98.7168 343.9313 0001510 100.5075 259.6271 14.19865599112156
ARKTIKA-M 2             
1 58584U 23198A   25273.05302128  .00000143  00000+0  00000+0 0  9999
2 58584  63.2269 182.9022 6863775 268.4071  18.7501  2.00603125 13100
TIANMU-1 11             
1 58645U 23205A   25274.52097877  .00013710  00000+0  57867-3 0  9992
2 58645  97.3692 295.4444 0009324 185.2948 174.8192 15.23356353 98097
TIANMU-1 12             
1 58646U 23205B   25274.54299212  .00014237  00000+0  60313-3 0  9997
2 58646  97.3679 295.2949 0008129 167.5219 192.6220 15.23231845 98084
TIANMU-1 13             
1 58647U 23205C   25274.51121605  .00013734  00000+0  58183-3 0  9998
2 58647  97.3707 295.4367 0009020 149.9020 210.2737 15.23232254 98072
TIANMU-1 14             
1 58648U 23205D   25274.49398640  .00013729  00000+0  58170-3 0  9991
2 58648  97.3637 294.8356 0009694 155.0863 205.0844 15.23222271 98075
TIANMU-1 19             
1 58660U 23208A   25274.52605405  .00020119  00000+0  78457-3 0  9993
2 58660  97.4346  25.8294 0006294 143.8497 216.3168 15.25954833 97803
TIANMU-1 20             
1 58661U 23208B   25274.56908933  .00019111  00000+0  71871-3 0  9993
2 58661  97.4283  26.2493 0008538 154.8527 205.3129 15.27156108 97872
TIANMU-1 21             
1 58662U 23208C   25274.54835547  .00022904  00000+0  80481-3 0  9993
2 58662  97.4328  27.8322 0008075 151.7770 208.3909 15.29355751 97958
TIANMU-1 22             
1 58663U 23208D   25274.58265560  .00018486  00000+0  72420-3 0  9994
2 58663  97.4341  25.9717 0004560 161.1060 199.0348 15.25829698 97824
TIANMU-1 15             
1 58700U 24004A   25274.49540330  .00014411  00000+0  60961-3 0  9993
2 58700  97.4676  96.2786 0006555 172.6229 187.5105 15.23292594 96340
TIANMU-1 16             
1 58701U 24004B   25274.54248524  .00014622  00000+0  61757-3 0  9998
2 58701  97.4611  95.7815 0006753 178.6951 181.4305 15.23339612 96354
TIANMU-1 17             
1 58702U 24004C   25274.52314084  .00015189  00000+0  64285-3 0  9990
2 58702  97.4647  96.1485 0005791 168.2828 191.8544 15.23267105 96347
TIANMU-1 18             
1 58703U 24004D   25274.50729701  .00014672  00000+0  61933-3 0  9998
2 58703  97.4666  96.3092 0005576 164.8030 195.3375 15.23366031 96342
INSAT-3DS               
1 58990U 24033A   25274.02941542 -.00000155  00000+0  00000+0 0  9990
2 58990   0.0142 132.4284 0001466  53.7241 276.5531  1.00272217 44473
METEOR-M2 4             
1 59051U 24039A   25274.53238045  .00000133  00000+0  79335-4 0  9995
2 59051  98.6627 232.6184 0006675 189.7042 170.4008 14.22384181 82498
GOES 19                 
1 60133U 24119A   25274.12371821 -.00000247  00000+0  00000+0 0  9997
2 60133   0.0083 294.9943 0000415 327.6857  76.7984  1.00272755  4367
FENGYUN 3H              
1 65815U 25219A   25271.26217231  .00000065  00000+0  46093-4 0  9991
2 65815  98.6417 212.5285 0009274 245.7702 114.2509 14.25569310   217
